{"fetched_at":"2026-03-29T02:12:04Z","count":15717,"tles":[{"name":"TIANHUI 7","line1":"1 67300U 25314A   26080.79298204  .00009819  00000+0  37703-3 0  9997","line2":"2 67300  97.4062 157.3457 0001425  80.7728 279.3672 15.26655754 12467","category":"Other"}]}